OBJECT B                
1 51825U 22019B   25037.78305164  .00024568  00000+0  75819-3 0  9993
2 51825  97.4011 113.7063 0012386 127.4618 232.7753 15.33484144163034
